[{"OBJECT_NAME":"STARLINK-5790","OBJECT_ID":"2023-042BC","EPOCH":"2026-03-09T07:01:22.727424","MEAN_MOTION":15.02531395,"ECCENTRICITY":0.00012555,"INCLINATION":43.005,"RA_OF_ASC_NODE":44.9882,"ARG_OF_PERICENTER":272.4301,"MEAN_ANOMALY":87.6398,"EPHEMERIS_TYPE":0,"CLASSIFICATION_TYPE":"U","NORAD_CAT_ID":56036,"ELEMENT_SET_NO":999,"REV_AT_EPOCH":16300,"BSTAR":6.860817e-6,"MEAN_MOTION_DOT":-1.11e-6,"MEAN_MOTION_DDOT":0},{"OBJECT_NAME":"OBJECT A","OBJECT_ID":"2025-292A","EPOCH":"2026-03-09T21:45:44.016480","MEAN_MOTION":15.05451809,"ECCENTRICITY":0.00146319,"INCLINATION":97.6364,"RA_OF_ASC_NODE":145.598,"ARG_OF_PERICENTER":341.1551,"MEAN_ANOMALY":18.9132,"EPHEMERIS_TYPE":0,"CLASSIFICATION_TYPE":"U","NORAD_CAT_ID":66993,"ELEMENT_SET_NO":999,"REV_AT_EPOCH":1350,"BSTAR":0.00038878249,"MEAN_MOTION_DOT":5.535e-5,"MEAN_MOTION_DDOT":0}]
